X,Y,OBJECTID,LONGITUDE,LATITUDE,FACNAME,FACTYPE,ADDRESS_1,ADDRESS_2,CITY,STATE,ZIP,AREACODE,PHONE,CONTACT,TITLE,FIPS,TYPE,NAME,METHOD,updated,draw,GlobalID
-84.515429387267346,34.112916322132072,391,-84.515828,34.11246,Woodstock Public Library,17,7745 North Main Street, ,Woodstock,Georgia,30188,770,926-5859, , ,13057,Library,Cherokee,GPS,2015-12-30T00:00:00.000Z, ,{4D3914B1-0FDA-4452-82F9-7012CBB3F4C2}
-84.217728797480063,33.933901723201139,392,-84.218628,33.933365,Norcross Public Library,17,6025 Buford Highway, ,Norcross,Georgia,30071,770,448-4938, , ,13135,Library,Gwinnett,GPS,2015-12-30T00:00:00.000Z, ,{FE3075D3-F221-48D3-BC59-0ED62966F064}
-84.634530575491937,33.814872377229321,393,-84.634812,33.814836,Sweetwater Valley Branch Library,17,2773 Sweetwater Street, ,Austell,Georgia,30106,770,819-3290, , ,13067,Library,Cobb,GPS,2015-12-30T00:00:00.000Z, ,{934F9FAA-30F5-4A91-9873-115F20F9DA59}
-84.256009438169784,33.795682384221131,394,-84.256142,33.795368,Tobie Grant Homework Library,17,644 Parkdale Drive, ,Scottdale,Georgia,30079,404,508-7174, , ,13089,Library,DeKalb,GPS,2015-12-30T00:00:00.000Z, ,{A62FBA8C-AF5E-44B1-9D9A-FADF63F249F7}
-84.578635782952063,33.825680970624973,395,-84.578633,33.825687,South Cobb Regional Library,17,805 Clay Road, ,Mabelton,Georgia,30126,678,3985828, , ,13067,Library,Cobb,Geocode,2015-12-30T00:00:00.000Z, ,{599424B0-B324-4713-A5AE-DADA72BE810E}
-84.018113928476964,33.665834774124207,396,-84.01789,33.665355,Nancy Guinn Memorial Library,17,864 Green Street, ,Conyers,Georgia,30012,770,388-5041, , ,13247,Library,Rockdale,GPS,2015-12-30T00:00:00.000Z, ,{C7342BFB-478D-454F-8DC1-A0EEA28D4E24}
-84.678120537435433,33.859057526016578,397,-84.678305,33.85887,Powder Springs Branch Library,17,4262 Marietta Street, ,Powder Springs,Georgia,30127,770,439-3600, , ,13067,Library,Cobb,GPS,2015-12-30T00:00:00.000Z, ,{C367C380-5652-45F6-8818-F9276515E858}
-84.405395419067844,33.658639834330856,398,-84.404648,33.657943,Hapeville Branch Library,17,525 King Arnold Street, ,Hapeville,Georgia,30354,404,762-4065, , ,13121,Library,Fulton,GPS,2015-12-30T00:00:00.000Z, ,{7B852FB8-9BAA-491E-899D-854E073E1609}
-84.585039552730109,33.917264429908776,399,-84.584685,33.917337,Stratton Branch Library,17,1100 Powder Springs Road, ,Marietta,Georgia,30064,770,528-2522, , ,13067,Library,Cobb,GPS,2015-12-30T00:00:00.000Z, ,{F4504A77-C917-4B80-8C1C-DDFBAF1B4224}
-84.660818656611013,33.787664375441622,400,-84.659375,33.781955,Lithia Springs Public Library,17,7100 Junior High Drive, ,Lithia Springs,Georgia,30122,770,944-5931, , ,13097,Library,Douglas,GPS,2015-12-30T00:00:00.000Z, ,{A314D5E3-8B96-42BD-99D7-0B0364BFECDE}
-84.596831375611046,33.474862977833943,401,-84.596894,33.475496,Tyrone Public Library,17,881 Senoia Road, ,Tyrone,Georgia,30290,770,487-1565, , ,13113,Library,Fayette,GPS,2015-12-30T00:00:00.000Z, ,{BBA4BBAE-A841-4FB5-ABA8-6F97291F2005}
-84.384882592141935,33.790530103335719,402,-84.385018,33.790363,Peachtree Branch Library,17,1315 Peachtree Street NE, ,Atlanta,Georgia,30309,404,885-7830, , ,13121,Library,Fulton,GPS,2015-12-30T00:00:00.000Z, ,{3B272B76-3E30-41EC-85C5-3252A0056B2B}
-84.192349136861594,33.759946446921205,403,-84.192235,33.759784,Hairston Crossing Branch Library,17,4911 Redan Road, ,Stone Mountain,Georgia,30088,404,508-7170, , ,13089,Library,DeKalb,GPS,2015-12-30T00:00:00.000Z, ,{C3222DA0-C3D3-4DF1-BB83-7231F9A35970}
-84.208627834746906,33.857298090165813,404,-84.211504,33.855766,Reid H. Cofer Branch Library,17,4316 Church Street, ,Tucker,Georgia,30084,770,270-8234, , ,13089,Library,DeKalb,GPS,2015-12-30T00:00:00.000Z, ,{25F6F4AA-4FCF-40A7-BFB8-027DA9EF4EAD}
-84.420619298814131,33.740766418361268,405,-84.420709,33.739925,West End Library,17,525 Peeples Street SW, ,Atlanta,Georgia,30310,404,752-8740, , ,13121,Library,Fulton,GPS,2015-12-30T00:00:00.000Z, ,{33A2218C-0876-45AE-A6AD-913818DA6CF1}
-84.239581270947411,33.805617992957302,406,-84.239434,33.80521,Clarkston Branch Library,17,951 North Indian Creek Drive, ,Clarkston,Georgia,30021,404,508-7175, , ,13089,Library,DeKalb,GPS,2015-12-30T00:00:00.000Z, ,{7920B4C0-58FF-4D6D-9524-FBA1619F0C5C}
-84.109300100317114,33.712333454768469,407,-84.109663,33.712004,Lithonia-Davison Branch Library,17,6821 Church Street, ,Lithonia,Georgia,30058,770,482-3820, , ,13089,Library,DeKalb,GPS,2015-12-30T00:00:00.000Z, ,{322DC122-928E-4EDE-B151-5611CA5241B2}
-84.440278912270955,33.680088130638644,408,-84.440276,33.680082,East Point Branch,17,2757 Main Street, ,East Point,Georgia,30344,404,762-4842, , ,13121,Library,Fulton,Local,2015-12-30T00:00:00.000Z, ,{4819DDA1-9B58-42FD-988B-551FB7730EB9}
-84.339938442702035,33.856945916206598,409,-84.340066,33.856943,Brookhaven Branch Library,17,1242 North Druid Hills Road, ,Atlanta,Georgia,30319,404,848-7140, , ,13089,Library,DeKalb,GPS,2015-12-30T00:00:00.000Z, ,{3723A1A3-A6E8-4DC1-94BB-F1E6815F337C}
-84.39550937270802,33.743490160875567,410,-84.395506,33.743484,Mechanicsville Branch,17,400 Formwalt Street SW, ,Atlanta,Georgia,30312,404,730-4779, , ,13121,Library,Fulton,Local,2015-12-30T00:00:00.000Z, ,{02AD4FFF-0D23-4A76-88BD-C2B12D52B3CA}
-84.615851978425994,34.024255303507161,411,-84.616417,34.024023,Kennesaw Branch Library,17,2250 Lewis Street, ,Kennesaw,Georgia,30144,770,528-2529, , ,13067,Library,Cobb,GPS,2015-12-30T00:00:00.000Z, ,{EFF8AE51-9847-463D-AE3B-9E48E982C1F1}
-84.371772587420253,33.754179328043975,412,-84.372582,33.754125,Martin Luther King Jr. Community Center,17,461 Edgewood Avenue SE, ,Atlanta,Georgia,30312,404,730-5414, , ,13121,Library,Fulton,GPS,2015-12-30T00:00:00.000Z, ,{7ACC07BD-3F5F-4D2C-AA51-E361644472CA}
-84.307648418790791,33.808671329085321,413,-84.30779,33.809269,Avis G. Williams Branch Library,17,1282 McConnell Drive, ,Decatur,Georgia,30033,404,679-4404, , ,13089,Library,DeKalb,GPS,2015-12-30T00:00:00.000Z, ,{A7C6CF1E-7498-40B0-A5BD-F1CA5B26A404}
-84.013188160445949,33.843939277547243,414,-84.013623,33.844069,Elizabeth H. Williams Public Library,17,2740 Lenora Church Road, ,Snellville,Georgia,30078,770,972-0988, , ,13135,Library,Gwinnett,GPS,2015-12-30T00:00:00.000Z, ,{2404814A-A479-4A1C-B445-1F153E9917C0}
-84.476856932779512,33.810713688227658,415,-84.476854,33.810707,Perry Homes Branch,17,2011 Bolton Road, ,Atlanta,Georgia,30318,404,792-4994, , ,13121,Library,Fulton,Local,2015-12-30T00:00:00.000Z, ,{DACFFDC0-8D30-4695-8FA4-6C52BF370B0D}
-84.209810314175371,34.063497481140551,416,-84.209807,34.063491,Ocee Branch,17,5090 Abbotts Bridge Road, ,Johns Creek,Georgia,30005,770,360-8897, , ,13121,Library,Fulton,Local,2015-12-30T00:00:00.000Z, ,{9C91954D-CD64-47A6-B52A-D1972013076D}
-84.230141080437122,33.544057684157899,417,-84.230267,33.543918,Cochran Public Library,17,4602 North Henry Boulevard, ,Stockbridge,Georgia,30281,770,389-7896, , ,13151,Library,Henry,GPS,2015-12-30T00:00:00.000Z, ,{2E2ED87C-DC49-4066-95B4-E67151139D4D}
-84.58117682025977,33.724193561852694,418,-84.578308,33.72412,Boatrock Branch Library,17,5860 Boat Rock Road, ,Atlanta,Georgia,30331,404,346-8390, , ,13121,Library,Fulton,GPS,2015-12-30T00:00:00.000Z, ,{AFA6F186-9CA4-4B7C-A06D-5D1DA9AD7B5D}
-84.66927656671696,33.96684679729001,419,-84.669284,33.966879,Kemp Memorial Library,17,4029 Due West Road, ,Marietta,Georgia,30064,770,528-2527, , ,13067,Library,Cobb,GPS,2015-12-30T00:00:00.000Z, ,{AD6D1495-AB78-4B18-9B35-4FF021904393}
-84.395179139339291,33.700633459709387,420,-84.395176,33.700627,Carver Homes Branch,17,215 Lakewood Way, ,Atlanta,Georgia,30315,404,635-4012, , ,13121,Library,Fulton,Local,2015-12-30T00:00:00.000Z, ,{E15C27F5-B8CF-4241-A323-10554BFB1D60}
-84.702428680001887,33.998541006773905,421,-84.702477,33.998322,West Cobb Regional Library,17,1750 Dennis Kemp Lane, ,Kennesaw,Georgia,30152,770,528-4699, , ,13067,Library,Cobb,Geocode,2015-12-30T00:00:00.000Z, ,{9911DF3F-E23C-4AB7-826C-DDC8C3F4057D}
-84.0192615382268,33.938176231500755,422,-84.014054,33.941478,Lawrenceville Public Library,17,1001 Lawrenceville Highway, ,Lawrenceville,Georgia,30045,770,822-4522, , ,13135,Library,Gwinnett,GPS,2015-12-30T00:00:00.000Z, ,{A81EDACA-A7E9-4C7A-846C-F92623392C01}
-84.75288077671695,33.742519352368113,423,-84.751765,33.742601,Douglas County Public Library,17,6810 Selman Drive, ,Douglasville,Georgia,30134,770,920-7125, , ,13097,Library,Douglas,GPS,2015-12-30T00:00:00.000Z, ,{378DEA55-0E53-4B52-83BD-ADEA07406B3A}
-84.42179086941438,34.171624520136888,424,-84.422456,34.170357,Hickory Flat Public Library,17,2740 East Cherokee Drive, ,Canton,Georgia,30115,770,345-7565, , ,13057,Library,Cherokee,GPS,2015-12-30T00:00:00.000Z, ,{02E33E2B-8104-4960-B265-7767292202DC}
-84.585357397149863,33.567174633072696,425,-84.584645,33.56673,Fairburn/Hobgood Palmer Library,17,60 Valley View Drive, ,Fairburn,Georgia,30213,770,306-3138, , ,13121,Library,Fulton,GPS,2015-12-30T00:00:00.000Z, ,{F11547C8-7C7E-4F41-BC32-D20372E8FBDC}
-84.17118669620217,33.806382388654818,426,-84.17118,33.806116,Sue Kellog Branch Library,17,952 Leon Street, ,Stone Mountain,Georgia,30083,770,413-2020, , ,13089,Library,DeKalb,GPS,2015-12-30T00:00:00.000Z, ,{987BB8CB-CFFE-4D3B-8977-223053071990}
-84.52406320197808,34.025219093175444,427,-84.525421,34.025152,Gritters Branch Library,17,880 Shaw Park Road, ,Marietta,Georgia,30066,770,528-2524, , ,13067,Library,Cobb,GPS,2015-12-30T00:00:00.000Z, ,{C5FAE8C7-AF31-467B-8405-AA3070E4989D}
-84.310242611736001,33.718211736617718,428,-84.310384,33.717799,Gresham Branch Library,17,2418 Gresham Road, ,Atlanta,Georgia,30316,404,244-4374, , ,13089,Library,DeKalb,GPS,2015-12-30T00:00:00.000Z, ,{C227EC70-1661-4549-B6A5-9A311D6AC7C3}
-84.220810407133683,33.703985868868841,429,-84.220974,33.703815,Wesley Chapel-Wm. C. Brown Memorial,17,2861 Wesley Chapel Road, ,Decatur,Georgia,30034,404,286-6980, , ,13089,Library,DeKalb,GPS,2015-12-30T00:00:00.000Z, ,{FDCC03D9-14C3-4B7F-95AA-67E11A0C172B}
-84.425846059197056,33.98085836142986,430,-84.428169,33.979936,Merchants' Walk Branch Library,17,1315 Johnson Ferry Road, ,Marietta,Georgia,30068,770,509-2730, , ,13067,Library,Cobb,GPS,2015-12-30T00:00:00.000Z, ,{EFBB6C65-5513-47C2-9CD2-081053CBDA98}
-84.178030110414909,33.678419069956547,431,-84.177645,33.678283,Salem-Panola Branch Library,17,5137 Salem Road, ,Lithonia,Georgia,30038,770,987-6900, , ,13089,Library,DeKalb,GPS,2015-12-30T00:00:00.000Z, ,{DD3D9756-2487-48BE-9EA1-638AFF0E676F}
-84.332615466296446,33.944722296220455,432,-84.331825,33.943862,Dunwoody Branch Library,17,5339 Chamblee-Dunwoody Road, ,Dunwoody,Georgia,30338,770,512-4640, , ,13089,Library,DeKalb,GPS,2015-12-30T00:00:00.000Z, ,{B704AD4F-2480-43D7-88A6-ECE361ACCAC8}
-84.31351694763822,33.584511023801866,433,-84.313795,33.585017,Morrow Branch Library,17,6225 Maddox Road, ,Morrow,Georgia,30260,770,366-7749, , ,13063,Library,Clayton,GPS,2015-12-30T00:00:00.000Z, ,{BC389739-3678-4655-9D68-FFFB39BEECF2}
-84.321496574755358,33.751552807344758,434,-84.321685,33.751599,Kirkwood Branch Library,17,"11 Kirkwood Road, NE", ,Atlanta,Georgia,30317,404,377-6471, , ,13089,Library,DeKalb,GPS,2015-12-30T00:00:00.000Z, ,{062A69B6-C7F0-43C0-B07A-B9DB19B7E7E5}
-84.363713817530822,33.781223917131079,435,-84.355355,33.77375,Ponce de Leon Branch Library,17,980 Ponce de Leon, ,Atlanta,Georgia,30306,404,885-7820, , ,13121,Library,Fulton,GPS,2015-12-30T00:00:00.000Z, ,{4687F4D4-A307-4C94-90A3-0A7EAB479115}
-84.457306990952461,33.447089321976158,436,-84.457458,33.445919,Fayette County Public Library,17,1821 Heritage Park Way, ,Fayetteville,Georgia,30214,770,461-8841, , ,13113,Library,Fayette,GPS,2015-12-30T00:00:00.000Z, ,{891199E9-6E16-4A6F-82AB-A560999D272C}
-84.583107242687461,33.398728187965759,437,-84.580964,33.401081,Peachtree City Library,17,201 Willowbend Road, ,Peachtree City,Georgia,30269,770,631-2520, , ,13113,Library,Fayette,GPS,2015-12-30T00:00:00.000Z, ,{74B17B77-7EE4-4EC3-A586-A9EDA4CE58C4}
-84.358143706030631,34.025293711435168,438,-84.357995,34.025236,Roswell Branch Library,17,115 Norcross Street, ,Roswell,Georgia,30075,404,640-3075, , ,13121,Library,Fulton,GPS,2015-12-30T00:00:00.000Z, ,{E89798FD-5019-48C6-B099-9711745C14E1}
-84.384089031044226,33.755429038854707,439,-84.384165,33.755392,Auburn Avenue Research Library,17,101 Auburn Avenue NE, ,Atlanta,Georgia,30303,404,730-4001, , ,13121,Library,Fulton,GPS,2015-12-30T00:00:00.000Z, ,{B9202E08-4C65-42C2-BEB3-D5316D8217CA}
-84.535983164603451,34.101910852018037,440,-84.572298,34.128558,Rose Creek Public Library,17,949 Towne Lake Parkway, ,Woodstock,Georgia,30189,770,591-1491, , ,13057,Library,Cherokee,GPS,2015-12-30T00:00:00.000Z, ,{89D4D8CD-DA77-427D-93A7-4563668F62B0}
-84.41131024182458,33.697383459416109,441,-84.411559,33.697195,Stewart Lakewood,17,2893 Lakewood Ave SW, ,Atlanta,Georgia,30315,404,762-4054, , ,13121,Library,Fulton,GPS,2015-12-30T00:00:00.000Z, ,{7FDFF3C4-B548-490B-94F8-3CBF59EF4648}
-84.498426630139605,33.794516668963453,442,-84.499749,33.7939,Bankhead Courts Library,17,1415 Maynard Road, ,Atlanta,Georgia,30331,404,699-8959, , ,13121,Library,Fulton,GPS,2015-12-30T00:00:00.000Z, ,{55429BAE-179C-41EC-8E21-1BE18972A8AA}
-84.544760736913943,33.950727355547322,443,-84.544683,33.950577,Cobb County Library System Headquarters,17,266 Roswell Street, ,Marietta,Georgia,30060,770,528-2324, , ,13067,Library,Cobb,GPS,2015-12-30T00:00:00.000Z, ,{1E07EC11-9BE4-4E73-9C53-52D1988732F4}
-84.09926767451725,33.71430026956002,444,-84.099059,33.714597,Bruce Street Branch Library,17,2484 Bruce Street, ,Lithonia,Georgia,30058,770,482-0405, , ,13089,Library,DeKalb,GPS,2015-12-30T00:00:00.000Z, ,{2E2EFCEB-9DFE-4A43-96C3-F4BAE4A036B7}
-84.347090815617193,33.741505865245074,445,-84.347088,33.741434,East Atlanta Branch Library,17,457 Flat Shoals Avenue, ,Atlanta,Georgia,30316,404,730-5438, , ,13121,Library,Fulton,GPS,2015-12-30T00:00:00.000Z, ,{0B88F85E-44D1-4225-9B4F-4086EB20624C}
-84.482078664751711,33.78198180089344,446,-84.47961,33.780468,Bowen Home Library,17,2880 Yates Drive NW, ,Atlanta,Georgia,30318,404,792-4950, , ,13121,Library,Fulton,GPS,2015-12-30T00:00:00.000Z, ,{AE5052AE-5E4C-44B1-B62E-EECB2AC4CC94}
-84.449280139570021,33.655534092043666,447,-84.449339,33.65545,College Park Branch Library,17,3647 Main Street, ,Atlanta,Georgia,30337,404,762-4060, , ,13121,Library,Fulton,GPS,2015-12-30T00:00:00.000Z, ,{AE186CD1-C888-4A96-B15A-6308779BE946}
-84.367637723241401,33.622111568886972,448,-84.367636,33.621898,Forest Park Branch Library,17,696 Main Street, ,Forest Park,Georgia,30297,770,366-0850, , ,13063,Library,Clayton,GPS,2015-12-30T00:00:00.000Z, ,{2010A40F-883A-4026-90D7-06C3DF50FCB2}
-84.055667330362596,33.892962815474711,449,-84.055602,33.893665,Five Forks Public Library,17,2780 Five Forks-Trickum Road, ,Lawrenceville,Georgia,30044,770,978-5600, , ,13135,Library,Gwinnett,GPS,2015-12-30T00:00:00.000Z, ,{65919BC5-6A76-400D-AA23-1A48672E4A20}
-84.44671463913842,33.774397012587237,450,-84.446974,33.774381,Dogwood Branch Library,17,1838 Bankhead Highway, ,Atlanta,Georgia,30318,404,792-4961, , ,13121,Library,Fulton,GPS,2015-12-30T00:00:00.000Z, ,{896D01C0-E2F6-4F0B-9EAC-A7D97741DF2E}
-84.4654597104023,33.86508854326344,451,-84.465226,33.864416,Vinings Branch Library,17,4300 Paces Ferry Road, ,Atlanta,Georgia,30339,770,801-5330, , ,13067,Library,Cobb,GPS,2015-12-30T00:00:00.000Z, ,{E06BD2D0-F260-4312-8D59-27D54CBA582B}
-84.379542401744715,33.736863464048625,452,-84.378975,33.736636,Georgia Hill Branch Library,17,250 Georgia Avenue, ,Atlanta,Georgia,30312,404,730-5427, , ,13121,Library,Fulton,GPS,2015-12-30T00:00:00.000Z, ,{5B06BE4D-CB22-4245-B9A9-2047A8DACFB9}
-84.261310881118405,33.841027705728308,453,-84.260833,33.841056,Northlake Branch Library,17,3772 LaVista Road, ,Tucker,Georgia,30084,404,679-4408, , ,13089,Library,DeKalb,GPS,2015-12-30T00:00:00.000Z, ,{4DDFA65E-31D9-4D19-95C5-183DC44F0EA1}
-84.469323925783414,34.237492053295611,454,-84.469545,34.237384,R. T. Jones Memorial Library,17,116 Brown Industrial Parkway, ,Canton,Georgia,30114,770,479-3090, , ,13057,Library,Cherokee,GPS,2015-12-30T00:00:00.000Z, ,{AA15992E-8F22-47AA-9DB0-0E15AA69C020}
-84.678195525662005,34.065401312884411,455,-84.678322,34.064989,Acworth Branch Library,17,4569 Dallas Street, ,Acworth,Georgia,30101,770,917-5165, , ,13067,Library,Cobb,GPS,2015-12-30T00:00:00.000Z, ,{E99A02B6-2D4F-4E08-8AF7-8809A5943D2C}
-84.251207922268492,33.76720066129905,456,-84.251114,33.767281,Covington Branch Library,17,3500 Covington Highway, ,Decatur,Georgia,30032,404,508-7180, , ,13089,Library,DeKalb,GPS,2015-12-30T00:00:00.000Z, ,{7FC23809-9B03-46DC-8A91-C64613F53861}
-84.288862494919726,33.380752458819714,457,-84.28792,33.381093,Fortson Public Library,17,14 Old Griffin Road, ,Hampton,Georgia,30228,770,946-8151, , ,13151,Library,Henry,GPS,2015-12-30T00:00:00.000Z, ,{272FE209-E2C1-4CED-B197-91826D225B94}
-84.508620101304345,33.723671121437086,458,-84.505967,33.723687,Southwest Regional Library,17,3665 Cascade Road SW, ,Atlanta,Georgia,30331,404,699-6363, , ,13121,Library,Fulton,GPS,2015-12-30T00:00:00.000Z, ,{438613E7-1DAD-4489-85C6-1C80BC6BFF16}
-84.494606194702115,33.844299957737704,459,-84.494615,33.844148,Lewis A. Ray Branch Library,17,4500 Oakdale Road, ,Smyrna,Georgia,30080,770,801-5335, , ,13067,Library,Cobb,GPS,2015-12-30T00:00:00.000Z, ,{319185E8-5C4B-436D-8C8E-791018CF242A}
-84.294553362183322,33.774427612241588,460,-84.294147,33.774375,Decatur Library,17,215 Sycamore Street, ,Decatur,Georgia,30030,404,370-8450, , ,13089,Library,DeKalb,GPS,2015-12-30T00:00:00.000Z, ,{B61A79C7-DF96-4FD9-9530-EC015AB54EE7}
-84.516857993355956,33.885810704761973,461,-84.516915,33.885432,Smyrna Library,17,100 Village Green Cir, ,Smyrna,Georgia,30080,770,431-2860, , ,13067,Library,Cobb,GPS,2015-12-30T00:00:00.000Z, ,{E3491C95-736B-407B-8E2B-EE9A5EE12B8A}
-84.145254135840574,33.902908793276062,462,-84.146224,33.901688,Lilburn Public Library,17,788 Hillcrest Road, ,Lilburn,Georgia,30047,770,921-7346, , ,13135,Library,Gwinnett,GPS,2015-12-30T00:00:00.000Z, ,{B0560097-67D0-4418-82E0-A4EA6CECA691}
-84.466867014782281,34.031241053611282,463,-84.466482,34.031644,Mountain View Branch Library,17,3320 Sandy Plains Road, ,Marietta,Georgia,30066,770,509-2725, , ,13067,Library,Cobb,GPS,2015-12-30T00:00:00.000Z, ,{9E76742E-EB29-4696-AB83-82DB6CE455E8}
-84.400411004306392,33.915229437393506,464,-84.37504,33.924201,Sandy Springs Regional Library,17,395 Mount Vernon Highway, ,Atlanta,Georgia,30328,404,303-6130, , ,13121,Library,Fulton,GPS,2015-12-30T00:00:00.000Z, ,{69F3E9C3-7E21-4DB8-BA6E-C2A05B7B1B0E}
-84.322367236281764,33.831851882496501,465,-84.322427,33.831796,Briarcliff Branch Library,17,2775 Briarcliff Road, ,Atlanta,Georgia,30329,404,679-4400, , ,13089,Library,DeKalb,GPS,2015-12-30T00:00:00.000Z, ,{4E83B558-3711-41D8-84F0-E2329FF29637}
-84.126756299259142,33.44202313193383,466,-84.141578,33.45056,Alexander Public Library,17,1001 Florence McGarity Pkwy, ,McDonough,Georgia,30252,770,954-2806, , ,13151,Library,Henry,GPS,2015-12-30T00:00:00.000Z, ,{769D8016-D546-4EFC-8D8A-19DEC7B64DFD}
-84.297108725466032,34.082283203860456,467,-84.298229,34.081734,Alpharetta Branch Library,17,238 Canton Street, ,Alpharetta,Georgia,30004,770,740-2425, , ,13121,Library,Fulton,GPS,2015-12-30T00:00:00.000Z, ,{04A5BB51-1E6E-47FD-B03C-D5B10C807BC5}
-84.424548510665815,33.754254194101939,468,-84.42419,33.754037,Washington Park-McPheeters Branch Librar,17,1116 Martin Luther King Jr. Dri, ,Atlanta,Georgia,30314,404,752-8760, , ,13121,Library,Fulton,GPS,2015-12-30T00:00:00.000Z, ,{B907C8EF-3788-418C-840D-F6F6373DB1D8}
-84.462447969986073,33.70493834514042,469,-84.462445,33.704932,Adams Park Branch,17,2231 Campbellton Road SW, ,Atlanta,Georgia,30311,404,752-8763, , ,13121,Library,Fulton,Local,2015-12-30T00:00:00.000Z, ,{8E11C762-A726-4AE5-BB12-48CAA75C612A}
-84.121912698096878,33.846942618166572,470,-84.121121,33.846306,Mountain Park Public Library,17,1210 Pounds Rd, ,Lilburn,Georgia,30047,770,921-1299, , ,13135,Library,Gwinnett,GPS,2015-12-30T00:00:00.000Z, ,{843D0DD5-BE98-4798-B6C7-3B43F5495E07}
-84.112967482664274,33.352531525097618,471,-84.112969,33.352319,Locust Grove Public Library,17,3644 Hwy 42, ,Locust Grove,Georgia,30248,770,954-2810, , ,13151,Library,Henry,GPS,2015-12-30T00:00:00.000Z, ,{426C722C-0A76-4990-B1DD-F9DD49EAAD98}
-84.22307572236528,34.014479771196513,472,-84.224312,34.014263,Northeast/Spruill Oaks Regional Library,17,9560 Spruill Rd, ,Alpharetta,Georgia,30022,770,360-8820, , ,13121,Library,Fulton,Local,2015-12-30T00:00:00.000Z, ,{C021E1F1-36C8-44CF-A765-90799E6242C3}
-84.278313850276078,33.90160565804414,473,-84.27847,33.901702,Doraville City Library,17,3748 Central Avenue, ,Doraville,Georgia,30340,770,936-3852, , ,13089,Library,DeKalb,GPS,2015-12-30T00:00:00.000Z, ,{75369B8C-D9E1-4F50-ACD0-327A070E7006}
-84.258864698472408,33.69143418677254,474,-84.258858,33.691203,Flat Shoals Branch Library,17,4022 Flat Shoals Rd, ,Decatur,Georgia,30034,404,244-4370, , ,13089,Library,DeKalb,GPS,2015-12-30T00:00:00.000Z, ,{5638CA97-7D8F-4EF7-864B-D336CBE5A929}
-84.378812435926278,33.838067449724626,475,-84.379265,33.838016,Buckhead Branch Library,17,269 Buckhead Avenue, ,Atlanta,Georgia,30305,404,814-3500, , ,13121,Library,Fulton,GPS,2015-12-30T00:00:00.000Z, ,{C6D772B3-F45F-428E-AFA1-7D5FE682FF5D}
-84.354886446869784,33.70378342587474,476,-84.35626,33.703489,Thomasville Heights Library,17,1700 Thomasville Drive, ,Atlanta,Georgia,30315,404,624-0620, , ,13121,Library,Fulton,GPS,2015-12-30T00:00:00.000Z, ,{3A20A149-DE24-4DFE-8580-C55CF8812784}
-84.242253666871662,33.883428844503328,477,-84.241377,33.883727,Embry Hills Branch Library,17,3733 Chamblee-Tucker Road, ,Chamblee,Georgia,30341,770,270-8230, , ,13089,Library,DeKalb,GPS,2015-12-30T00:00:00.000Z, ,{AF5664D7-53F3-4D6D-9CC6-75F0496BA15B}
-84.35695010894392,33.522704676920149,478,-84.356723,33.522478,Jonesboro Branch Library,17,124 Smith Street, ,Jonesboro,Georgia,30236,770,478-7120, , ,13063,Library,Clayton,GPS,2015-12-30T00:00:00.000Z, ,{4B7389D4-D3F5-4318-BAAB-BB3F4F9E8EE2}
-84.427310696360152,33.845979801607641,479,-84.425496,33.844525,Northside Branch Library,17,3295 Northside Parkway, ,Atlanta,Georgia,30327,404,814-3508, , ,13121,Library,Fulton,GPS,2015-12-30T00:00:00.000Z, ,{8421A66D-35E9-45E0-91DD-578C442BA418}
-84.492407063737787,33.949629056279569,480,-84.493389,33.949832,East Marietta Branch Library,17,2051 Lower Roswell Road, ,Marietta,Georgia,30068,770,509-2711, , ,13067,Library,Cobb,GPS,2015-12-30T00:00:00.000Z, ,{2BD8AAB5-E6C1-466E-BEAF-0BF83398F59A}
-84.362931447323064,33.554303729495174,481,-84.363557,33.554462,Clayton County Library System,17,865 Battlecreek Road, ,Jonesboro,Georgia,30236,770,473-3850, , ,13063,Library,Clayton,GPS,2015-12-30T00:00:00.000Z, ,{E794DBC3-1F1F-49EE-AE2A-A2D0120D7D8F}
-84.30931577320132,33.882198458742877,482,-84.309455,33.882071,Chamblee Branch Library,17,4115 Clairmont Road, ,Chamblee,Georgia,30341,770,936-1380, , ,13089,Library,DeKalb,GPS,2015-12-30T00:00:00.000Z, ,{FE31B508-478A-4026-A094-C20A161ED234}
-84.388415144402558,33.757475793132294,483,-84.388001,33.757435,Atlanta-Fulton Public Library Central,17,One Margaret Mitchell Square, ,Atlanta,Georgia,30303,404,730-1700, , ,13121,Library,Fulton,GPS,2015-12-30T00:00:00.000Z, ,{AAF2FDC1-4346-49AD-B7F2-EC11C65487F0}
-84.500127187549225,33.75551927756463,484,-84.50002,33.755257,Adamsville-Collier Heights Library,17,3424 Martin Luther King Jr. Dri, ,Atlanta,Georgia,30331,404,699-4206, , ,13121,Library,Fulton,GPS,2015-12-30T00:00:00.000Z, ,{87CAAE90-7076-4454-BAD0-6196A2850AF6}
-84.0026322375966,34.016359030832,485,-84.00225,34.015495,Collins Hill Library,17,455 Camp Perrin Rd., ,Lawrenceville,Georgia,30043,770,822-2040, , ,13135,Library,Gwinnett,Photo,2015-12-30T00:00:00.000Z, ,{AE684D4A-6E2B-45C4-891D-24F7E18956E6}
-84.547641902816181,33.915021627834534,486,-84.548014,33.915475,Sibley Library,17,1539 South Cobb Drive, ,Marietta,Georgia,30060,770,528-2520, , ,13067,Library,Cobb,GPS,2015-12-30T00:00:00.000Z, ,{C7DAD353-BE35-473A-B609-1AAAE599533E}
-84.141734436446043,33.74535914166168,487,-84.141729,33.745268,Redan-Trotti Branch Library,17,1569 Wellborn Road, ,Lithonia,Georgia,30058,770,482-3821, , ,13089,Library,DeKalb,GPS,2015-12-30T00:00:00.000Z, ,{53F90A7B-743A-4E74-9826-39C872B4D114}
